     2.100          NAVIGATION                              RINEX VERSION / TYPE
fic2rin                                 04/23/2012 01:23:19 PGM / RUN BY / DATE
                                                            END OF HEADER
 1 12  4 22 22  0  0.0  .250911340117D-03  .386535248253D-11  .000000000000D+00
     .800000000000D+02 -.225312500000D+02  .446554315065D-08 -.227421612616D+01
    -.111386179924D-05  .618316233158D-03  .838935375214D-05  .515365065002D+04
     .792000000000D+05 -.372529029846D-07 -.606262024721D+00  .633299350739D-07
     .960235015517D+00  .218625000000D+03  .420550211181D+00 -.787639951223D-08
    -.518950187787D-09  .100000000000D+01  .168500000000D+04  .000000000000D+00
     .240000000000D+01  .000000000000D+00  .838190317154D-08  .800000000000D+02
     .720060000000D+05  .400000000000D+01
 2 12  4 22 22  0  0.0  .387646723539D-03  .136424205266D-11  .000000000000D+00
     .290000000000D+02 -.330312500000D+02  .507914013800D-08 -.116688399996D+01
    -.176951289177D-05  .111648960738D-01  .747293233871D-05  .515367651939D+04
     .792000000000D+05  .221654772758D-06 -.619226312576D+00 -.244006514549D-06
     .938777657275D+00  .224625000000D+03 -.280595385917D+01 -.820105589261D-08
    -.474305471012D-09  .100000000000D+01  .168500000000D+04  .000000000000D+00
     .240000000000D+01  .000000000000D+00 -.172294676304D-07  .290000000000D+02
     .720060000000D+05  .400000000000D+01
 3 12  4 22 22  0  0.0  .394019298255D-04  .500222085975D-11  .000000000000D+00
     .520000000000D+02  .273437500000D+02  .562201989398D-08 -.100272253213D+01
     .160932540894D-05  .151699078269D-01  .529922544956D-05  .515370425034D+04
     .792000000000D+05 -.130385160446D-07 -.178302641101D+01  .378116965294D-06
     .930572228766D+00  .260562500000D+03  .118153397614D+01 -.871822029173D-08
     .222509268404D-09  .100000000000D+01  .168500000000D+04  .000000000000D+00
     .240000000000D+01  .000000000000D+00 -.419095158577D-08  .520000000000D+02
     .720060000000D+05  .400000000000D+01
 5 12  4 22 22  0  0.0 -.307768583298D-03 -.397903932026D-11  .000000000000D+00
     .400000000000D+02  .861250000000D+02  .437161066656D-08  .843933521219D+00
     .454857945442D-05  .266498769633D-02  .103414058685D-04  .515365237045D+04
     .792000000000D+05 -.149011611938D-07  .443499892156D+00  .763684511185D-07
     .951709250373D+00  .174562500000D+03  .267820197341D+00 -.791997275580D-08
     .792890169915D-10  .100000000000D+01  .168500000000D+04  .000000000000D+00
     .240000000000D+01  .000000000000D+00 -.102445483208D-07  .400000000000D+02
     .720060000000D+05  .400000000000D+01
 6 12  4 22 22  0  0.0  .297878868878D-04 -.136424205266D-11  .000000000000D+00
     .600000000000D+02  .171875000000D+02  .545558438985D-08  .903069155289D+00
     .707805156708D-06  .728802348021D-02  .469200313091D-05  .515368375397D+04
     .792000000000D+05  .154599547386D-06 -.170664421626D+01 -.335276126862D-07
     .937444339108D+00  .271718750000D+03 -.567710446779D+00 -.852678374620D-08
     .157149403046D-09  .100000000000D+01  .168500000000D+04  .000000000000D+00
     .240000000000D+01  .000000000000D+00 -.512227416039D-08  .600000000000D+02
     .720060000000D+05  .400000000000D+01
 7 12  4 22 22  0  0.0  .749058090150D-04  .329691829393D-11  .000000000000D+00
     .105000000000D+03 -.119843750000D+03  .429803617332D-08 -.258873243160D+01
    -.615231692791D-05  .525047571864D-02  .603497028351D-05  .515361370087D+04
     .792000000000D+05 -.689178705215D-07  .255466856699D+01 -.540167093277D-07
     .975861970808D+00  .273781250000D+03 -.302428196672D+01 -.798390399022D-08
    -.293226499775D-09  .100000000000D+01  .168500000000D+04  .000000000000D+00
     .340000000000D+01  .000000000000D+00 -.107102096081D-07  .105000000000D+03
     .720060000000D+05  .400000000000D+01
 8 12  4 22 22  0  0.0  .106683000922D-05  .113686837722D-12  .000000000000D+00
     .130000000000D+02 -.120843750000D+03  .367872466222D-08  .303422958437D+01
    -.618956983089D-05  .121776495362D-01  .678934156895D-05  .515369151878D+04
     .792000000000D+05 -.152736902237D-06  .263722662255D+01 -.465661287308D-07
     .998058758068D+00  .271750000000D+03 -.297216127646D+01 -.755067165864D-08
    -.290012080167D-09  .100000000000D+01  .168500000000D+04  .000000000000D+00
     .240000000000D+01  .000000000000D+00 -.465661287308D-08  .130000000000D+02
     .720060000000D+05  .400000000000D+01
 9 12  4 22 22  0  0.0  .153298024088D-03  .261479726760D-11  .000000000000D+00
     .250000000000D+02 -.115687500000D+03  .404088260469D-08  .300782727043D+01
    -.598840415478D-05  .174098098651D-01  .533089041710D-05  .515362796593D+04
     .792000000000D+05  .322237610817D-06  .252868350948D+01 -.726431608200D-07
     .984600577366D+00  .286656250000D+03  .160893425441D+01 -.766639076452D-08
    -.297869550320D-09  .100000000000D+01  .168500000000D+04  .000000000000D+00
     .240000000000D+01  .000000000000D+00 -.558793544769D-08  .250000000000D+02
     .720060000000D+05  .400000000000D+01
10 12  4 22 22  0  0.0 -.361758284271D-04 -.113686837722D-11  .000000000000D+00
     .310000000000D+02  .912500000000D+02  .452018828399D-08  .116726086375D+01
     .478327274323D-05  .112427925924D-01  .107418745756D-04  .515370312691D+04
     .792000000000D+05 -.109896063805D-06  .465255391640D+00  .670552253723D-07
     .946582709975D+00  .163812500000D+03  .751015827372D+00 -.815926843771D-08
    -.396445084958D-10  .100000000000D+01  .168500000000D+04  .000000000000D+00
     .240000000000D+01  .000000000000D+00 -.232830643654D-08  .310000000000D+02
     .720060000000D+05  .400000000000D+01
11 12  4 22 22  0  0.0 -.254157930613D-03 -.375166564481D-11  .000000000000D+00
     .490000000000D+02 -.390937500000D+02  .626311802686D-08 -.246624431672D+01
    -.203773379326D-05  .128332633758D-01  .568293035030D-05  .515367185974D+04
     .792000000000D+05  .117346644402D-06 -.873629899495D+00 -.651925802231D-07
     .887959038715D+00  .228656250000D+03  .103980857337D+01 -.865607484598D-08
    -.364300888880D-09  .100000000000D+01  .168500000000D+04  .000000000000D+00
     .240000000000D+01  .000000000000D+00 -.116415321827D-07  .490000000000D+02
     .720060000000D+05  .400000000000D+01
12 12  4 22 22  0  0.0  .649760477245D-04  .204636307899D-11  .000000000000D+00
     .330000000000D+02 -.213437500000D+02  .382694512191D-08 -.276350387226D+01
    -.121630728245D-05  .400777067989D-02  .110082328320D-04  .515353454399D+04
     .792000000000D+05 -.912696123123D-07 -.267292290039D+01 -.298023223877D-07
     .979593215052D+00  .175125000000D+03  .704853387401D-02 -.752388482857D-08
     .296798077117D-09  .100000000000D+01  .168500000000D+04  .000000000000D+00
     .240000000000D+01  .000000000000D+00 -.121071934700D-07  .330000000000D+02
     .720060000000D+05  .400000000000D+01
13 12  4 22 22  0  0.0  .211829319596D-03 -.227373675443D-11  .000000000000D+00
     .980000000000D+02  .398437500000D+02  .432017995284D-08 -.277344771266D+00
     .182166695595D-05  .497239036486D-02  .170804560184D-05  .515367965889D+04
     .792000000000D+05 -.596046447754D-07  .158360603248D+01 -.391155481339D-07
     .985801122551D+00  .359843750000D+03  .197067613311D+01 -.830106005819D-08
     .216437586923D-09  .100000000000D+01  .168500000000D+04  .000000000000D+00
     .340000000000D+01  .000000000000D+00 -.111758708954D-07  .980000000000D+02
     .720060000000D+05  .400000000000D+01
14 12  4 22 22  0  0.0  .200857408345D-03  .102318153949D-11  .000000000000D+00
     .610000000000D+02  .360625000000D+02  .450697344782D-08 -.158368231781D+00
     .187009572983D-05  .621872814372D-02  .166520476341D-05  .515357897758D+04
     .792000000000D+05 -.223517417908D-07  .155712855382D+01  .614672899246D-07
     .978664815055D+00  .359593750000D+03 -.206403731788D+01 -.837677749783D-08
     .164649715464D-09  .100000000000D+01  .168500000000D+04  .000000000000D+00
     .240000000000D+01  .000000000000D+00 -.884756445885D-08  .610000000000D+02
     .720060000000D+05  .400000000000D+01
15 12  4 22 22  0  0.0 -.913590192795D-04  .113686837722D-12  .000000000000D+00
     .520000000000D+02  .560625000000D+02  .512164190837D-08 -.646409546809D+00
     .294670462608D-05  .436784327030D-02  .155903398991D-05  .515354657555D+04
     .792000000000D+05  .428408384323D-07  .147039536956D+01 -.242143869400D-07
     .945560737349D+00  .337187500000D+03  .527218486480D-01 -.863535969739D-08
     .259653672761D-09  .100000000000D+01  .168500000000D+04  .000000000000D+00
     .240000000000D+01  .000000000000D+00 -.102445483208D-07  .520000000000D+02
     .720060000000D+05  .400000000000D+01
16 12  4 22 22  0  0.0 -.232324004173D-03 -.136424205266D-11  .000000000000D+00
     .990000000000D+02 -.190625000000D+02  .392159192147D-08  .116968536812D+01
    -.741332769394D-06  .663664075546D-02  .110417604446D-04  .515365907097D+04
     .792000000000D+05  .316649675369D-07 -.265480020832D+01  .856816768646D-07
     .980431219879D+00  .172593750000D+03 -.414959756054D-01 -.762424615188D-08
     .246795994329D-09  .100000000000D+01  .168500000000D+04  .000000000000D+00
     .240000000000D+01  .000000000000D+00 -.977888703346D-08  .990000000000D+02
     .720060000000D+05  .400000000000D+01
17 12  4 22 22  0  0.0  .133940484375D-03 -.261479726760D-11  .000000000000D+00
     .970000000000D+02  .142187500000D+02  .490020411317D-08  .188332474746D+00
     .808387994766D-06  .732466764748D-02  .521726906300D-05  .515365949821D+04
     .792000000000D+05 -.745058059692D-08 -.161409840789D+01  .137835741043D-06
     .962294654955D+00  .281062500000D+03 -.230231219202D+01 -.826998733531D-08
     .145006040084D-09  .100000000000D+01  .168500000000D+04  .000000000000D+00
     .340000000000D+01  .000000000000D+00 -.107102096081D-07  .970000000000D+02
     .720060000000D+05  .400000000000D+01
